NORAD_CAT_ID,OBJECT_NAME,OBJECT_TYPE,EPOCH,MEAN_MOTION,ECCENTRICITY,INCLINATION,RA_OF_ASC_NODE,ARG_OF_PERICENTER,MEAN_ANOMALY,BSTAR,MEAN_MOTION_DOT,MEAN_MOTION_DDOT,TLE_LINE0,TLE_LINE1,TLE_LINE2,SEMIMAJOR_AXIS,PERIOD,APOGEE,PERIGEE,DECAYED
55391.0,STARLINK-5077,PAYLOAD,2023-04-16 17:43:26,15.69928502,0.0002775,70.0002,238.6675,256.8109,103.2777,2.6163e-05,2.935e-05,0.0,0 STARLINK-5077,1 55391U 23014A   23106.73850059  .00002935  00000-0  26163-4 0  9993,2 55391  70.0002 238.6675 0002775 256.8109 103.2777 15.69928502 12921,6737.239,91.724,360.973,357.234,0.0
55391.0,STARLINK-5077,PAYLOAD,2023-04-17 12:04:28,15.69927002,0.0002714,70.0004,236.5164,248.197,111.8937,3.9083e-05,4.49e-05,0.0,0 STARLINK-5077,1 55391U 23014A   23107.50310239  .00004490  00000-0  39083-4 0  9993,2 55391  70.0004 236.5164 0002714 248.1970 111.8937 15.69927002 12103,6737.243,91.724,360.936,357.279,0.0
55391.0,STARLINK-5077,PAYLOAD,2023-04-17 16:39:43,15.69929179,0.0002656,70.0007,235.9793,247.3959,112.6956,3.4605e-05,3.951e-05,0.0,0 STARLINK-5077,1 55391U 23014A   23107.69425144  .00003951  00000-0  34605-4 0  9991,2 55391  70.0007 235.9793 0002656 247.3959 112.6956 15.69929179 13074,6737.237,91.724,360.891,357.312,0.0
55391.0,STARLINK-5077,PAYLOAD,2023-04-18 09:28:59,15.699237,0.000264,70.0004,234.0088,241.576,118.517,8.2176e-06,7.76e-06,0.0,0 STARLINK-5077,1 55391U 23014A   23108.39513762  .00000776  00000-0  82176-5 0  9992,2 55391  70.0004 234.0088 0002640 241.5760 118.5170 15.69923700 13186,6737.252,91.724,360.896,357.339,0.0
55391.0,STARLINK-5077,PAYLOAD,2023-04-18 17:07:45,15.6992348,0.0002719,70.0003,233.1131,246.4828,113.6082,8.0943e-06,7.61e-06,0.0,0 STARLINK-5077,1 55391U 23014A   23108.71372162  .00000761  00000-0  80943-5 0  9999,2 55391  70.0003 233.1131 0002719 246.4828 113.6082 15.69923480 13239,6737.253,91.724,360.95,357.286,0.0
55391.0,STARLINK-5077,PAYLOAD,2023-04-19 17:35:47,15.69924657,0.0003454,69.9994,230.2463,263.5864,96.4938,6.1346e-06,5.25e-06,0.0,0 STARLINK-5077,1 55391U 23014A   23109.73318715  .00000525  00000-0  61346-5 0  9990,2 55391  69.9994 230.2463 0003454 263.5864  96.4938 15.69924657 13390,6737.25,91.724,361.442,356.788,0.0
55391.0,STARLINK-5077,PAYLOAD,2023-04-20 08:53:18,15.69922497,0.0003595,69.9991,228.4542,262.3442,97.7345,-6.2859e-07,-2.88e-06,0.0,0 STARLINK-5077,1 55391U 23014A   23110.37035559 -.00000288  00000-0 -62859-6 0  9993,2 55391  69.9991 228.4542 0003595 262.3442  97.7345 15.69922497 13496,6737.256,91.724,361.543,356.699,0.0
55391.0,STARLINK-5077,PAYLOAD,2023-04-20 16:32:04,15.69917463,0.0003696,69.9975,227.5592,263.7887,96.2888,-4.5015e-06,-7.54e-06,0.0,0 STARLINK-5077,1 55391U 23014A   23110.68894661 -.00000754  00000-0 -45015-5 0  9996,2 55391  69.9975 227.5592 0003696 263.7887  96.2888 15.69917463 13542,6737.27,91.725,361.625,356.645,0.0
55391.0,STARLINK-5077,PAYLOAD,2023-04-21 13:56:36,15.69921687,0.0004001,69.9977,225.0514,265.1247,94.9491,1.8509e-05,2.013e-05,0.0,0 STARLINK-5077,1 55391U 23014A   23111.58097339  .00002013  00000-0  18509-4 0  9998,2 55391  69.9977 225.0514 0004001 265.1247  94.9491 15.69921687 13681,6737.258,91.724,361.819,356.427,0.0
55391.0,STARLINK-5077,PAYLOAD,2023-04-21 17:00:06,15.69921334,0.0003433,69.9991,224.6952,265.0912,94.9892,1.7145e-05,1.849e-05,0.0,0 STARLINK-5077,1 55391U 23014A   23111.70840802  .00001849  00000-0  17145-4 0  9994,2 55391  69.9991 224.6952 0003433 265.0912  94.9892 15.69921334 12766,6737.259,91.724,361.437,356.811,0.0
55391.0,STARLINK-5077,PAYLOAD,2023-04-22 00:38:51,15.69923255,0.0003565,69.9982,223.7979,262.334,97.7451,3.2154e-05,3.655e-05,0.0,0 STARLINK-5077,1 55391U 23014A   23112.02698687  .00003655  00000-0  32154-4 0  9996,2 55391  69.9982 223.7979 0003565 262.3340  97.7451 15.69923255 13752,6737.254,91.724,361.52,356.717,0.0
55391.0,STARLINK-5077,PAYLOAD,2023-04-22 17:28:08,15.69918984,0.0003341,69.9983,221.829,264.0148,96.0667,1.1361e-05,1.153e-05,0.0,0 STARLINK-5077,1 55391U 23014A   23112.72787830  .00001153  00000-0  11361-4 0  9990,2 55391  69.9983 221.8290 0003341 264.0148  96.0667 15.69918984 12927,6737.266,91.724,361.382,356.88,0.0
55391.0,STARLINK-5077,PAYLOAD,2023-04-23 07:13:54,15.69919556,0.0003685,69.9977,220.216,267.7462,92.3311,6.0108e-06,5.1e-06,0.0,0 STARLINK-5077,1 55391U 23014A   23113.30132901  .00000510  00000-0  60108-5 0  9998,2 55391  69.9977 220.2160 0003685 267.7462  92.3311 15.69919556 13954,6737.264,91.724,361.612,356.646,0.0
55391.0,STARLINK-5077,PAYLOAD,2023-04-23 16:24:25,15.69927661,0.0003123,69.9972,219.1412,270.4176,89.6661,1.2422e-05,1.281e-05,0.0,0 STARLINK-5077,1 55391U 23014A   23113.68362380  .00001281  00000-0  12422-4 0  9996,2 55391  69.9972 219.1412 0003123 270.4176  89.6661 15.69927661 13072,6737.241,91.724,361.21,357.002,0.0
55391.0,STARLINK-5077,PAYLOAD,2023-04-24 06:10:10,15.69934704,0.0002934,69.9973,217.5286,266.6852,93.4008,2.4254e-05,2.706e-05,0.0,0 STARLINK-5077,1 55391U 23014A   23114.25706573  .00002706  00000-0  24254-4 0  9995,2 55391  69.9973 217.5286 0002934 266.6852  93.4008 15.69934704 13165,6737.221,91.724,361.063,357.109,0.0
55391.0,STARLINK-5077,PAYLOAD,2023-04-25 09:41:45,15.69903228,0.0003193,69.9977,214.3042,270.2839,89.7991,-2.1527e-05,-2.798e-05,0.0,0 STARLINK-5077,1 55391U 23014A   23115.40400383 -.00002798  00000-0 -21527-4 0  9996,2 55391  69.9977 214.3042 0003193 270.2839  89.7991 15.69903228 13344,6737.311,91.725,361.327,357.025,0.0
55391.0,STARLINK-5077,PAYLOAD,2023-04-25 15:48:16,15.70276353,0.0004592,69.9997,213.5882,284.8777,75.191,0.00038553,0.00047101,0.0,0 STARLINK-5077,1 55391U 23014A   23115.65852815  .00047101  00000-0  38553-3 0  9995,2 55391  69.9997 213.5882 0004592 284.8777  75.1910 15.70276353 14328,6736.244,91.704,361.202,355.015,0.0
55391.0,STARLINK-5077,PAYLOAD,2023-04-26 08:37:58,15.69950647,0.0003356,69.9981,211.618,266.3711,93.7101,6.7693e-05,7.943e-05,0.0,0 STARLINK-5077,1 55391U 23014A   23116.35970565  .00007943  00000-0  67693-4 0  9994,2 55391  69.9981 211.6180 0003356 266.3711  93.7101 15.69950647 14434,6737.175,91.723,361.301,356.779,0.0
55391.0,STARLINK-5077,PAYLOAD,2023-04-27 09:05:57,15.69926252,0.0002585,69.9978,208.754,258.4347,101.6559,8.5567e-06,8.17e-06,0.0,0 STARLINK-5077,1 55391U 23014A   23117.37913596  .00000817  00000-0  85567-5 0  9992,2 55391  69.9978 208.7540 0002585 258.4347 101.6559 15.69926252 13651,6737.245,91.724,360.852,357.368,0.0
55391.0,STARLINK-5077,PAYLOAD,2023-04-27 19:48:20,15.6991049,0.0003221,69.9979,207.4997,263.0287,97.0543,4.9205e-07,-1.54e-06,0.0,0 STARLINK-5077,1 55391U 23014A   23117.82524116 -.00000154  00000-0  49205-6 0  9993,2 55391  69.9979 207.4997 0003221 263.0287  97.0543 15.69910490 13723,6737.29,91.725,361.325,356.985,0.0
55391.0,STARLINK-5077,PAYLOAD,2023-04-28 04:58:45,15.69913284,0.0002928,69.9977,206.4216,273.4494,86.6367,0.0001047,0.00012389,0.0,0 STARLINK-5077,1 55391U 23014A   23118.20747237  .00012389  00000-0  10470-3 0  9998,2 55391  69.9977 206.4216 0002928 273.4494  86.6367 15.69913284 13780,6737.282,91.725,361.12,357.174,0.0
55391.0,STARLINK-5077,PAYLOAD,2023-04-28 12:37:31,15.69831898,0.0002688,69.998,205.527,264.5692,95.5197,0.00014757,0.00017499,0.0,0 STARLINK-5077,1 55391U 23014A   23118.52605631  .00017499  00000-0  14757-3 0  9993,2 55391  69.9980 205.5270 0002688 264.5692  95.5197 15.69831898 13834,6737.515,91.73,361.191,357.569,0.0
55391.0,STARLINK-5077,PAYLOAD,2023-04-29 03:55:06,15.69874818,0.0003025,69.9975,203.7345,267.3091,92.7758,6.2683e-05,7.315e-05,0.0,0 STARLINK-5077,1 55391U 23014A   23119.16327092  .00007315  00000-0  62683-4 0  9994,2 55391  69.9975 203.7345 0003025 267.3091  92.7758 15.69874818 13933,6737.392,91.727,361.295,357.219,0.0
55391.0,STARLINK-5077,PAYLOAD,2023-04-29 10:02:07,15.69944202,0.0003266,69.9976,203.0182,272.1034,87.9788,-2.4634e-05,-3.176e-05,0.0,0 STARLINK-5077,1 55391U 23014A   23119.41814109 -.00003176  00000-0 -24634-4 0  9999,2 55391  69.9976 203.0182 0003266 272.1034  87.9788 15.69944202 13972,6737.194,91.723,361.259,356.858,0.0
55391.0,STARLINK-5077,PAYLOAD,2023-04-29 13:05:36,15.69902777,0.0003082,69.9976,202.6601,268.9854,91.0989,7.0752e-05,8.295e-05,0.0,0 STARLINK-5077,1 55391U 23014A   23119.54556569  .00008295  00000-0  70752-4 0  9993,2 55391  69.9976 202.6601 0003082 268.9854  91.0989 15.69902777 14939,6737.312,91.725,361.254,357.101,0.0
55391.0,STARLINK-5077,PAYLOAD,2023-04-30 04:23:08,15.69931006,0.000347,69.9974,200.868,269.418,90.6618,-3.4661e-05,-4.38e-05,0.0,0 STARLINK-5077,1 55391U 23014A   23120.18274066 -.00004380  00000-0 -34661-4 0  9996,2 55391  69.9974 200.8680 0003470 269.4180  90.6618 15.69931006 14091,6737.231,91.724,361.434,356.759,0.0
55391.0,STARLINK-5077,PAYLOAD,2023-04-30 13:33:39,15.69935226,0.0003308,69.9974,199.7937,265.1386,94.9432,-3.238e-05,-4.106e-05,0.0,0 STARLINK-5077,1 55391U 23014A   23120.56503494 -.00004106  00000-0 -32380-4 0  9990,2 55391  69.9974 199.7937 0003308 265.1386  94.9432 15.69935226 15093,6737.219,91.724,361.313,356.856,0.0
55391.0,STARLINK-5077,PAYLOAD,2023-04-30 15:05:23,15.69937638,0.0003293,69.9974,199.6146,267.6659,92.416,-3.4145e-05,-4.319e-05,0.0,0 STARLINK-5077,1 55391U 23014A   23120.62874984 -.00004319  00000-0 -34145-4 0  9999,2 55391  69.9974 199.6146 0003293 267.6659  92.4160 15.69937638 14164,6737.212,91.723,361.296,356.859,0.0
55391.0,STARLINK-5077,PAYLOAD,2023-05-01 07:54:40,15.69924184,0.0003308,69.9971,197.6441,268.1053,91.9764,1.9837e-05,2.173e-05,0.0,0 STARLINK-5077,1 55391U 23014A   23121.32963513  .00002173  00000-0  19837-4 0  9999,2 55391  69.9971 197.6441 0003308 268.1053  91.9764 15.69924184 14276,6737.251,91.724,361.345,356.887,0.0
55391.0,STARLINK-5077,PAYLOAD,2023-05-01 12:29:55,15.69923053,0.0003365,69.9973,197.1065,266.2077,93.8734,2.6417e-05,2.965e-05,0.0,0 STARLINK-5077,1 55391U 23014A   23121.52078672  .00002965  00000-0  26417-4 0  9995,2 55391  69.9973 197.1065 0003365 266.2077  93.8734 15.69923053 15243,6737.254,91.724,361.386,356.852,0.0
